GLOBALSTAR M067         
1 32263U 07048A   25095.93323569 -.00000033  00000+0  47725-3 0  9990
2 32263  51.9718 247.3529 0001381 155.1097  23.9682 12.40669909800512
GLOBALSTAR M070         
1 32264U 07048B   25095.84896976 -.00000062  00000+0  23457-3 0  9996
2 32264  51.9777 348.8754 0000655  61.0574  26.6626 12.62315280804531
GLOBALSTAR M066         
1 32265U 07048C   25095.87340644 -.00000066  00000+0  23544-3 0  9997
2 32265  51.9641 234.8527 0001934  94.6655  74.8492 12.35252764806363
GLOBALSTAR M068         
1 32266U 07048D   25096.53802623 -.00000024  00000+0  44008-3 0  9994
2 32266  51.9871 160.6677 0000605 354.3431 144.2351 12.62819725808794
GLOBALSTAR M079         
1 37188U 10054A   25096.46039466 -.00000079  00000+0  13894-3 0  9991
2 37188  52.0068 358.1339 0000879  92.5503  78.7477 12.62272608668073
GLOBALSTAR M074         
1 37189U 10054B   25095.91264515 -.00000094  00000+0  55091-4 0  9999
2 37189  52.0051 359.1363 0000531  84.0231 355.5629 12.62273366667934
GLOBALSTAR M076         
1 37190U 10054C   25095.93877443 -.00000087  00000+0  93301-4 0  9991
2 37190  52.0060 359.2174 0000653 104.4846 336.6564 12.62260382667652
GLOBALSTAR M077         
1 37191U 10054D   25096.10451846 -.00000078  00000+0  14258-3 0  9990
2 37191  52.0084 315.5533 0000815  94.3083  78.4021 12.62272861668782
